TRANSPORTER-16 OBJECT BM
1 68475U 26067BM  26105.80910150 -.00000511  00000+0 -46147-4 0  9993
2 68475  97.7488  65.0188 0001989 273.3135  86.7856 14.91036486  1906
