{
  "norad_id": 68475,
  "name": "TRANSPORTER-16 OBJECT BM",
  "history": [
    {
      "epoch": "2026-04-15T19:25:06.368736Z",
      "apogee_km": 596.0892687309988,
      "perigee_km": 593.3154732292223,
      "latitude_deg": 2.3053647152093122e-05,
      "longitude_deg": -70.22358184558298,
      "height_km": 597.6658588200975,
      "semi_major_axis_km": 6972.83937098011,
      "eccentricity": 0.0001989,
      "inclination_deg": 97.7488,
      "raan_deg": 65.0188,
      "arg_perigee_deg": 273.3135,
      "mean_anomaly_deg": 86.7856,
      "mean_motion_rev_day": 14.91036486
    }
  ]
}